KUIPER-00053            
1 64513U 25134P   25199.30338990  .00022208  00000+0  62741-3 0  9991
2 64513  51.8782 211.0218 0002175 179.5658 180.5331 15.36271113  5065
KUIPER-00054            
1 64514U 25134Q   25199.30675302  .00027286  00000+0  77164-3 0  9999
2 64514  51.8773 211.0474 0002889 173.1994 186.9032 15.36117979  5062
KUIPER-00055            
1 64515U 25134R   25199.75155102  .00019665  00000+0  54903-3 0  9998
2 64515  51.8770 208.7782 0000707  86.9921 273.1146 15.36720320  4988
KUIPER-00056            
1 64516U 25134S   25199.30999194  .00022938  00000+0  65672-3 0  9999
2 64516  51.8739 211.0679 0003633 187.7568 172.3362 15.35831940  5064
KUIPER-00057            
1 64517U 25134T   25199.45327299  .00025173  00000+0  73913-3 0  9998
2 64517  51.8695 210.5186 0006594 194.7784 165.3010 15.34970268  5080
KUIPER-00058            
1 64518U 25134U   25199.44589909  .00031229  00000+0  89675-3 0  9997
2 64518  51.8717 210.4745 0004515 198.1367 161.9459 15.35562998  5089
KUIPER-00059            
1 64519U 25134V   25199.75299517  .00019611  00000+0  54769-3 0  9992
2 64519  51.8775 208.7834 0001270 121.6976 238.4135 15.36713653  4666
KUIPER-00060            
1 64520U 25134W   25199.75678306  .00021249  00000+0  59741-3 0  9996
2 64520  51.8755 208.8141 0002110 135.4051 224.7105 15.36451550  4670
